{
  "norad_id": 45225,
  "name": "STARLINK-1215",
  "history": [
    {
      "epoch": "2026-03-28T19:01:48.650880Z",
      "apogee_km": 476.00831982849377,
      "perigee_km": 474.3847651122833,
      "latitude_deg": -1.4696838881508747e-06,
      "longitude_deg": 157.91070926590677,
      "height_km": 476.15957872264494,
      "semi_major_axis_km": 6853.333542470388,
      "eccentricity": 0.00011845,
      "inclination_deg": 53.1585,
      "raan_deg": 269.5717,
      "arg_perigee_deg": 94.5926,
      "mean_anomaly_deg": 265.521,
      "mean_motion_rev_day": 15.30206205
    }
  ]
}